              M50 Cartesian                         J2K Cartesian  
    -----------------------------------       --------------------------------
     X    =       -8489441.85                 X    =        -2519821.85
     Y    =      -12824964.73  feet           Y    =        -3937606.67  meter
     Z    =      -16112691.08                 Z    =        -4923553.04
     XDOT =      14718.919717                 XDOT =        4539.804706
     YDOT =     -18981.240286  feet/sec       YDOT =       -5735.013836  meter/sec
     ZDOT =       7350.805760                 ZDOT =        2262.448767
 
              TDR Cartesian                         TDR Cartesian  
    -----------------------------------       --------------------------------
     X    =       -9871441.41                 X    =        -3008815.34
     Y    =      -11721496.72  feet           Y    =        -3572712.20  meter
     Z    =      -16165714.22                 Z    =        -4927309.70
     XDOT =      11420.519474                 XDOT =        3480.974336
     YDOT =     -19891.559733  feet/sec       YDOT =       -6062.947407  meter/sec
     ZDOT =       7446.921298                 ZDOT =        2269.821612
  
  
    The mean element set is posted at the UTC for which position is
    just north of the next ascending node relative to the above
    vector time
 
 
    TWO LINE MEAN ELEMENT SET
  
    ISS
    1 25544U 98067A   16049.62260279  .00016717  00000-0  10270-3 0  9012
    2 25544  51.6403 294.2780 0003791 141.8309 218.3112 15.54179999 26385
  
  
    Satellite: ISS
    Catalog Number: 25544
    Epoch time:      16049.62260279   =   yrday.fracday
    Element set:     901
    Inclination:       51.6403  deg
    RA of node:       294.2780  deg
    Eccentricity:     .0003791     
    Arg of perigee:   141.8309  deg
    Mean anomaly:     218.3112  deg
    Mean motion:   15.54179999  rev/day
    Decay rate:    1.67170E-04  rev/day^2
    Epoch rev:            2638
    Checksum:              321
 
 
    Coasting Arc #3 (Orbit 2651)
    ---------------------------------------
 
    Vector Time (GMT): 2016/050/12:25:00.000
    Vector Time (MET): N/A
    Weight (LBS)     : 906643.5
 
              M50 Cartesian                         M50 Keplerian  
    -----------------------------------       --------------------------------
     X    =        -131238.07                 A    =         6786074.27  meter
     Y    =       -6229759.29  meter          E    =           .0006179
     Z    =       -2693319.62                 I    =           51.30621
     XDOT =       5169.996315                 Wp   =           91.63201
     YDOT =      -2331.551979  meter/sec      RA   =          289.04877  deg
     ZDOT =       5151.156895                 TA   =          237.81465
                                              MA   =          237.87459
                                              Ha   =            221.902  n.mi
                                              Hp   =            213.702
 
              M50 Cartesian                         J2K Cartesian  
    -----------------------------------       --------------------------------
     X    =        -430571.11                 X    =          -48482.92
     Y    =      -20438842.80  feet           Y    =        -6230764.32  meter
     Z    =       -8836350.46                 Z    =        -2693755.76
     XDOT =      16961.930167                 XDOT =        5170.662538
     YDOT =      -7649.448749  feet/sec       YDOT =       -2273.733620  meter/sec
     ZDOT =      16900.121046                 ZDOT =        5176.272619
 
              TDR Cartesian                         TDR Cartesian  
    -----------------------------------       --------------------------------
     X    =        8526933.76                 X    =         2599009.41
     Y    =      -18579836.64  feet           Y    =        -5663134.21  meter
     Z    =       -8837072.31                 Z    =        -2693539.64
     XDOT =      17147.598262                 XDOT =        5226.587950
     YDOT =       -204.747483  feet/sec       YDOT =         -62.407033  meter/sec
     ZDOT =      17009.415895                 ZDOT =        5184.469965
  
  
    The mean element set is posted at the UTC for which position is
    just north of the next ascending node relative to the above
    vector time
 
 
    TWO LINE MEAN ELEMENT SET
  
    ISS
    1 25544U 98067A   16050.52280056  .00016717  00000-0  10270-3 0  9029
    2 25544  51.6428 289.7919 0003639 144.2490 215.8907 15.54189097 26524
  
  
    Satellite: ISS
    Catalog Number: 25544
    Epoch time:      16050.52280056   =   yrday.fracday
    Element set:     902
    Inclination:       51.6428  deg
    RA of node:       289.7919  deg
    Eccentricity:     .0003639     
    Arg of perigee:   144.2490  deg
    Mean anomaly:     215.8907  deg
    Mean motion:   15.54189097  rev/day
    Decay rate:    1.67170E-04  rev/day^2
    Epoch rev:            2652
    Checksum:              327
 
 
    Coasting Arc #4 (Orbit 2667)
    ---------------------------------------
 
    Vector Time (GMT): 2016/051/12:25:00.000
    Vector Time (MET): N/A
    Weight (LBS)     : 906643.5
 
              M50 Cartesian                         M50 Keplerian  
    -----------------------------------       --------------------------------
     X    =        -794956.13                 A    =         6788700.30  meter
     Y    =        6650134.61  meter          E    =           .0017144
     Z    =        1052942.39                 I    =           51.30505
     XDOT =      -4931.863282                 Wp   =          128.76998
     YDOT =        348.014292  meter/sec      RA   =          284.05125  deg
     ZDOT =      -5867.371194                 TA   =           39.75224
                                              MA   =           39.62674
                                              Ha   =            221.888  n.mi
                                              Hp   =            213.743
 
              M50 Cartesian                         J2K Cartesian  
    -----------------------------------       --------------------------------
     X    =       -2608123.79                 X    =         -874375.12
     Y    =       21818026.94  feet           Y    =         6640800.91  meter
     Z    =        3454535.39                 Z    =         1048887.39
     XDOT =     -16180.653811                 XDOT =       -4906.887853
     YDOT =       1141.779174  feet/sec       YDOT =         293.002129  meter/sec
     ZDOT =     -19249.905493                 ZDOT =       -5891.267729
 
              TDR Cartesian                         TDR Cartesian  
    -----------------------------------       --------------------------------
     X    =      -11511401.44                 X    =        -3508675.16
     Y    =       18720198.40  feet           Y    =         5705916.47  meter
     Z    =        3435728.88                 Z    =         1047210.16
     XDOT =     -13697.494984                 XDOT =       -4174.996471
     YDOT =      -4838.132079  feet/sec       YDOT =       -1474.662658  meter/sec
     ZDOT =     -19353.545112                 ZDOT =       -5898.960550
  
  
    The mean element set is posted at the UTC for which position is
    just north of the next ascending node relative to the above
    vector time
 
 
    TWO LINE MEAN ELEMENT SET
  
    ISS
    1 25544U 98067A   16051.55158514  .00016717  00000-0  10270-3 0  9037
    2 25544  51.6424 284.6628 0003815 148.0963 212.0422 15.54186599 26686
  
  
    Satellite: ISS
    Catalog Number: 25544
    Epoch time:      16051.55158514   =   yrday.fracday
    Element set:     903
    Inclination:       51.6424  deg
    RA of node:       284.6628  deg
    Eccentricity:     .0003815     
    Arg of perigee:   148.0963  deg
    Mean anomaly:     212.0422  deg
    Mean motion:   15.54186599  rev/day
    Decay rate:    1.67170E-04  rev/day^2
    Epoch rev:            2668
    Checksum:              317
 
 
    Coasting Arc #5 (Orbit 2683)
    ---------------------------------------
 
    Vector Time (GMT): 2016/052/12:25:00.000
    Vector Time (MET): N/A
    Weight (LBS)     : 906643.5
 
              M50 Cartesian                         M50 Keplerian  
    -----------------------------------       --------------------------------
     X    =        1587185.83                 A    =         6788766.75  meter
     Y    =       -6562366.14  meter          E    =           .0013003
     Z    =         667134.02                 I    =           51.29806
     XDOT =       4542.610038                 Wp   =           68.09008
     YDOT =       1711.053547  meter/sec      RA   =          279.05578  deg
     ZDOT =       5935.174466                 TA   =          299.14851
                                              MA   =          299.27858
                                              Ha   =            221.675  n.mi
                                              Hp   =            213.763
 
              M50 Cartesian                         J2K Cartesian  
    -----------------------------------       --------------------------------
     X    =        5207302.60                 X    =         1657209.30
     Y    =      -21530072.63  feet           Y    =        -6544225.59  meter
     Z    =        2188759.92                 Z    =          675014.67
     XDOT =      14903.576240                 XDOT =        4494.309182
     YDOT =       5613.692740  feet/sec       YDOT =        1761.582518  meter/sec
     ZDOT =      19472.357171                 ZDOT =        5957.123311
 
